[{"OBJECT_NAME":"SITRO-AIS 8 (ANOKHIN)","OBJECT_ID":"2023-091AD","EPOCH":"2026-03-09T23:44:40.058592","MEAN_MOTION":15.29359179,"ECCENTRICITY":0.0012509,"INCLINATION":97.5169,"RA_OF_ASC_NODE":133.2823,"ARG_OF_PERICENTER":92.0171,"MEAN_ANOMALY":268.2501,"EPHEMERIS_TYPE":0,"CLASSIFICATION_TYPE":"U","NORAD_CAT_ID":57193,"ELEMENT_SET_NO":999,"REV_AT_EPOCH":14927,"BSTAR":0.00064982524,"MEAN_MOTION_DOT":0.00018494,"MEAN_MOTION_DDOT":0},{"OBJECT_NAME":"STARLINK-31258","OBJECT_ID":"2024-017D","EPOCH":"2026-03-09T16:10:54.145920","MEAN_MOTION":15.30231444,"ECCENTRICITY":0.00010102,"INCLINATION":53.1604,"RA_OF_ASC_NODE":204.4049,"ARG_OF_PERICENTER":84.1447,"MEAN_ANOMALY":275.9668,"EPHEMERIS_TYPE":0,"CLASSIFICATION_TYPE":"U","NORAD_CAT_ID":58829,"ELEMENT_SET_NO":999,"REV_AT_EPOCH":12005,"BSTAR":6.8064732e-5,"MEAN_MOTION_DOT":1.659e-5,"MEAN_MOTION_DDOT":0}]
